ONEWEB-0654             
1 55816U 23029W   25284.16758458  .00000025  00000+0  33772-4 0  9998
2 55816  87.9053 339.3149 0001920  87.9464 272.1886 13.14501989126702
ONEWEB-0656             
1 55817U 23029X   25284.19152604 -.00000035  00000+0 -11751-3 0  9998
2 55817  87.9237 324.0808 0001920  82.1258 278.0093 13.20771670128281
ONEWEB-0657             
1 55818U 23029Y   25284.24226881  .00000060  00000+0  11641-3 0  9998
2 55818  87.9262 354.5106 0002607  92.0564 268.0867 13.19726695126070
ONEWEB-0658             
1 55819U 23029Z   25284.23752204  .00000080  00000+0  16641-3 0  9998
2 55819  87.9282 354.4538 0002076 112.7781 247.3571 13.19724012126086
ONEWEB-0660             
1 55820U 23029AA  25284.22150364  .00000226  00000+0  57534-3 0  9996
2 55820  87.9061 339.2782 0001578 104.8867 255.2438 13.14502787126693
ONEWEB-0661             
1 55821U 23029AB  25284.10415050 -.00000147  00000+0 -42974-3 0  9996
2 55821  87.9050 339.3723 0001496 101.1147 259.0152 13.14503619126665
ONEWEB-0662             
1 55822U 23029AC  25284.21515451  .00000200  00000+0  50627-3 0  9997
2 55822  87.9049 339.3550 0001590 107.5171 252.6133 13.14502908126729
ONEWEB-0663             
1 55823U 23029AD  25284.16630475 -.00000034  00000+0 -11621-3 0  9994
2 55823  87.9244 324.1464 0001704 109.1867 250.9450 13.20848675128276
ONEWEB-0664             
1 55824U 23029AE  25284.10312510  .00000095  00000+0  20283-3 0  9995
2 55824  87.9225 324.1749 0001559  88.1799 271.9513 13.20773987128265
ONEWEB-0665             
1 55825U 23029AF  25284.10097702 -.00000093  00000+0 -28438-3 0  9999
2 55825  87.9057 339.3491 0001686 106.7154 253.4161 13.14504607126686
ONEWEB-0666             
1 55826U 23029AG  25284.17256438 -.00000314  00000+0 -80478-3 0  9998
2 55826  87.9223 324.1489 0002553  86.5176 273.6249 13.20771417128285
ONEWEB-0667             
1 55827U 23029AH  25284.09045009 -.00002334  00000+0 -57726-2 0  9993
2 55827  87.9236 324.0916 0002170 105.0118 255.1256 13.20792157128267
ONEWEB-0669             
1 55828U 23029AJ  25284.16154208  .00000020  00000+0  18266-4 0  9990
2 55828  87.9223 324.1190 0001871  74.3243 285.8096 13.20772084128273
ONEWEB-0670             
1 55829U 23029AK  25284.15489797  .00000274  00000+0  70575-3 0  9995
2 55829  87.9060 339.3580 0001483  97.9310 262.1988 13.14502612126715
ONEWEB-0671             
1 55830U 23029AL  25284.23277443  .00000007  00000+0 -15382-4 0  9990
2 55830  87.9264 354.5056 0001715 102.1163 258.0162 13.19726200126065
ONEWEB-0672             
1 55831U 23029AM  25284.15680208 -.00000022  00000+0 -86937-4 0  9991
2 55831  87.9220 324.1013 0002102  89.9625 270.1749 13.20772089128279
