[{"OBJECT_NAME":"ONEWEB-0654","OBJECT_ID":"2023-029W","EPOCH":"2025-10-11T04:01:19.307712","MEAN_MOTION":13.14501989,"ECCENTRICITY":0.000192,"INCLINATION":87.9053,"RA_OF_ASC_NODE":339.3149,"ARG_OF_PERICENTER":87.9464,"MEAN_ANOMALY":272.1886,"EPHEMERIS_TYPE":0,"CLASSIFICATION_TYPE":"U","NORAD_CAT_ID":55816,"ELEMENT_SET_NO":999,"REV_AT_EPOCH":12670,"BSTAR":3.3771603e-5,"MEAN_MOTION_DOT":2.5e-7,"MEAN_MOTION_DDOT":0},{"OBJECT_NAME":"ONEWEB-0656","OBJECT_ID":"2023-029X","EPOCH":"2025-10-11T04:35:47.849856","MEAN_MOTION":13.2077167,"ECCENTRICITY":0.00019209,"INCLINATION":87.9237,"RA_OF_ASC_NODE":324.0808,"ARG_OF_PERICENTER":82.1258,"MEAN_ANOMALY":278.0093,"EPHEMERIS_TYPE":0,"CLASSIFICATION_TYPE":"U","NORAD_CAT_ID":55817,"ELEMENT_SET_NO":999,"REV_AT_EPOCH":12828,"BSTAR":-0.0001175096,"MEAN_MOTION_DOT":-3.5e-7,"MEAN_MOTION_DDOT":0},{"OBJECT_NAME":"ONEWEB-0657","OBJECT_ID":"2023-029Y","EPOCH":"2025-10-11T05:48:52.025184","MEAN_MOTION":13.19726695,"ECCENTRICITY":0.00026077,"INCLINATION":87.9262,"RA_OF_ASC_NODE":354.5106,"ARG_OF_PERICENTER":92.0564,"MEAN_ANOMALY":268.0867,"EPHEMERIS_TYPE":0,"CLASSIFICATION_TYPE":"U","NORAD_CAT_ID":55818,"ELEMENT_SET_NO":999,"REV_AT_EPOCH":12607,"BSTAR":0.00011640672,"MEAN_MOTION_DOT":6.0e-7,"MEAN_MOTION_DDOT":0},{"OBJECT_NAME":"ONEWEB-0658","OBJECT_ID":"2023-029Z","EPOCH":"2025-10-11T05:42:01.904256","MEAN_MOTION":13.19724012,"ECCENTRICITY":0.00020761,"INCLINATION":87.9282,"RA_OF_ASC_NODE":354.4538,"ARG_OF_PERICENTER":112.7781,"MEAN_ANOMALY":247.3571,"EPHEMERIS_TYPE":0,"CLASSIFICATION_TYPE":"U","NORAD_CAT_ID":55819,"ELEMENT_SET_NO":999,"REV_AT_EPOCH":12608,"BSTAR":0.00016640849,"MEAN_MOTION_DOT":8.0e-7,"MEAN_MOTION_DDOT":0},{"OBJECT_NAME":"ONEWEB-0660","OBJECT_ID":"2023-029AA","EPOCH":"2025-10-11T05:18:57.914496","MEAN_MOTION":13.14502787,"ECCENTRICITY":0.00015789,"INCLINATION":87.9061,"RA_OF_ASC_NODE":339.2782,"ARG_OF_PERICENTER":104.8867,"MEAN_ANOMALY":255.2438,"EPHEMERIS_TYPE":0,"CLASSIFICATION_TYPE":"U","NORAD_CAT_ID":55820,"ELEMENT_SET_NO":999,"REV_AT_EPOCH":12669,"BSTAR":0.00057534072,"MEAN_MOTION_DOT":2.26e-6,"MEAN_MOTION_DDOT":0},{"OBJECT_NAME":"ONEWEB-0661","OBJECT_ID":"2023-029AB","EPOCH":"2025-10-11T02:29:58.603200","MEAN_MOTION":13.14503619,"ECCENTRICITY":0.00014968,"INCLINATION":87.905,"RA_OF_ASC_NODE":339.3723,"ARG_OF_PERICENTER":101.1147,"MEAN_ANOMALY":259.0152,"EPHEMERIS_TYPE":0,"CLASSIFICATION_TYPE":"U","NORAD_CAT_ID":55821,"ELEMENT_SET_NO":999,"REV_AT_EPOCH":12666,"BSTAR":-0.0004297384,"MEAN_MOTION_DOT":-1.47e-6,"MEAN_MOTION_DDOT":0},{"OBJECT_NAME":"ONEWEB-0662","OBJECT_ID":"2023-029AC","EPOCH":"2025-10-11T05:09:49.349664","MEAN_MOTION":13.14502908,"ECCENTRICITY":0.00015907,"INCLINATION":87.9049,"RA_OF_ASC_NODE":339.355,"ARG_OF_PERICENTER":107.5171,"MEAN_ANOMALY":252.6133,"EPHEMERIS_TYPE":0,"CLASSIFICATION_TYPE":"U","NORAD_CAT_ID":55822,"ELEMENT_SET_NO":999,"REV_AT_EPOCH":12672,"BSTAR":0.00050626717,"MEAN_MOTION_DOT":2.0e-6,"MEAN_MOTION_DDOT":0},{"OBJECT_NAME":"ONEWEB-0663","OBJECT_ID":"2023-029AD","EPOCH":"2025-10-11T03:59:28.730400","MEAN_MOTION":13.20848675,"ECCENTRICITY":0.0001704,"INCLINATION":87.9244,"RA_OF_ASC_NODE":324.1464,"ARG_OF_PERICENTER":109.1867,"MEAN_ANOMALY":250.945,"EPHEMERIS_TYPE":0,"CLASSIFICATION_TYPE":"U","NORAD_CAT_ID":55823,"ELEMENT_SET_NO":999,"REV_AT_EPOCH":12827,"BSTAR":-0.00011621167,"MEAN_MOTION_DOT":-3.4e-7,"MEAN_MOTION_DDOT":0},{"OBJECT_NAME":"ONEWEB-0664","OBJECT_ID":"2023-029AE","EPOCH":"2025-10-11T02:28:30.008640","MEAN_MOTION":13.20773987,"ECCENTRICITY":0.00015593,"INCLINATION":87.9225,"RA_OF_ASC_NODE":324.1749,"ARG_OF_PERICENTER":88.1799,"MEAN_ANOMALY":271.9513,"EPHEMERIS_TYPE":0,"CLASSIFICATION_TYPE":"U","NORAD_CAT_ID":55824,"ELEMENT_SET_NO":999,"REV_AT_EPOCH":12826,"BSTAR":0.00020283148,"MEAN_MOTION_DOT":9.5e-7,"MEAN_MOTION_DDOT":0},{"OBJECT_NAME":"ONEWEB-0665","OBJECT_ID":"2023-029AF","EPOCH":"2025-10-11T02:25:24.414528","MEAN_MOTION":13.14504607,"ECCENTRICITY":0.0001686,"INCLINATION":87.9057,"RA_OF_ASC_NODE":339.3491,"ARG_OF_PERICENTER":106.7154,"MEAN_ANOMALY":253.4161,"EPHEMERIS_TYPE":0,"CLASSIFICATION_TYPE":"U","NORAD_CAT_ID":55825,"ELEMENT_SET_NO":999,"REV_AT_EPOCH":12668,"BSTAR":-0.00028437933,"MEAN_MOTION_DOT":-9.3e-7,"MEAN_MOTION_DDOT":0},{"OBJECT_NAME":"ONEWEB-0666","OBJECT_ID":"2023-029AG","EPOCH":"2025-10-11T04:08:29.562432","MEAN_MOTION":13.20771417,"ECCENTRICITY":0.00025533,"INCLINATION":87.9223,"RA_OF_ASC_NODE":324.1489,"ARG_OF_PERICENTER":86.5176,"MEAN_ANOMALY":273.6249,"EPHEMERIS_TYPE":0,"CLASSIFICATION_TYPE":"U","NORAD_CAT_ID":55826,"ELEMENT_SET_NO":999,"REV_AT_EPOCH":12828,"BSTAR":-0.0008047797,"MEAN_MOTION_DOT":-3.14e-6,"MEAN_MOTION_DDOT":0},{"OBJECT_NAME":"ONEWEB-0667","OBJECT_ID":"2023-029AH","EPOCH":"2025-10-11T02:10:14.887776","MEAN_MOTION":13.20792157,"ECCENTRICITY":0.00021706,"INCLINATION":87.9236,"RA_OF_ASC_NODE":324.0916,"ARG_OF_PERICENTER":105.0118,"MEAN_ANOMALY":255.1256,"EPHEMERIS_TYPE":0,"CLASSIFICATION_TYPE":"U","NORAD_CAT_ID":55827,"ELEMENT_SET_NO":999,"REV_AT_EPOCH":12826,"BSTAR":-0.0057725816,"MEAN_MOTION_DOT":-2.334e-5,"MEAN_MOTION_DDOT":0},{"OBJECT_NAME":"ONEWEB-0669","OBJECT_ID":"2023-029AJ","EPOCH":"2025-10-11T03:52:37.235712","MEAN_MOTION":13.20772084,"ECCENTRICITY":0.0001871,"INCLINATION":87.9223,"RA_OF_ASC_NODE":324.119,"ARG_OF_PERICENTER":74.3243,"MEAN_ANOMALY":285.8096,"EPHEMERIS_TYPE":0,"CLASSIFICATION_TYPE":"U","NORAD_CAT_ID":55828,"ELEMENT_SET_NO":999,"REV_AT_EPOCH":12827,"BSTAR":1.8265807e-5,"MEAN_MOTION_DOT":2.0e-7,"MEAN_MOTION_DDOT":0},{"OBJECT_NAME":"ONEWEB-0670","OBJECT_ID":"2023-029AK","EPOCH":"2025-10-11T03:43:03.184608","MEAN_MOTION":13.14502612,"ECCENTRICITY":0.00014835,"INCLINATION":87.906,"RA_OF_ASC_NODE":339.358,"ARG_OF_PERICENTER":97.931,"MEAN_ANOMALY":262.1988,"EPHEMERIS_TYPE":0,"CLASSIFICATION_TYPE":"U","NORAD_CAT_ID":55829,"ELEMENT_SET_NO":999,"REV_AT_EPOCH":12671,"BSTAR":0.00070574874,"MEAN_MOTION_DOT":2.74e-6,"MEAN_MOTION_DDOT":0},{"OBJECT_NAME":"ONEWEB-0671","OBJECT_ID":"2023-029AL","EPOCH":"2025-10-11T05:35:11.710752","MEAN_MOTION":13.197262,"ECCENTRICITY":0.00017153,"INCLINATION":87.9264,"RA_OF_ASC_NODE":354.5056,"ARG_OF_PERICENTER":102.1163,"MEAN_ANOMALY":258.0162,"EPHEMERIS_TYPE":0,"CLASSIFICATION_TYPE":"U","NORAD_CAT_ID":55830,"ELEMENT_SET_NO":999,"REV_AT_EPOCH":12606,"BSTAR":-1.5381823e-5,"MEAN_MOTION_DOT":7.0e-8,"MEAN_MOTION_DDOT":0},{"OBJECT_NAME":"ONEWEB-0672","OBJECT_ID":"2023-029AM","EPOCH":"2025-10-11T03:45:47.699712","MEAN_MOTION":13.20772089,"ECCENTRICITY":0.00021026,"INCLINATION":87.922,"RA_OF_ASC_NODE":324.1013,"ARG_OF_PERICENTER":89.9625,"MEAN_ANOMALY":270.1749,"EPHEMERIS_TYPE":0,"CLASSIFICATION_TYPE":"U","NORAD_CAT_ID":55831,"ELEMENT_SET_NO":999,"REV_AT_EPOCH":12827,"BSTAR":-8.6936697e-5,"MEAN_MOTION_DOT":-2.2e-7,"MEAN_MOTION_DDOT":0}]
